CCSDS_OMM_VERS = 2.0
CREATION_DATE  = 
ORIGINATOR     = 

OBJECT_NAME    = CZ-2D R/B
OBJECT_ID      = 2005-024B
CENTER_NAME    = EARTH
REF_FRAME      = TEME
TIME_SYSTEM    = UTC
MEAN_ELEMENT_THEORY = SGP/SGP4

EPOCH          = 2025-11-29T13:47:46.385088
MEAN_MOTION    = 15.52254398
ECCENTRICITY   = .0007392
INCLINATION    = 97.3645
RA_OF_ASC_NODE = 340.6867
ARG_OF_PERICENTER = 46.6348
MEAN_ANOMALY   = 313.5519

EPHEMERIS_TYPE = 0
CLASSIFICATION_TYPE = U
NORAD_CAT_ID   = 28738
ELEMENT_SET_NO = 999
REV_AT_EPOCH   = 12421
BSTAR          = .3952E-3
MEAN_MOTION_DOT = .23957E-3
MEAN_MOTION_DDOT = 0

CCSDS_OMM_VERS = 2.0
CREATION_DATE  = 
ORIGINATOR     = 

OBJECT_NAME    = ALOS (DAICHI)
OBJECT_ID      = 2006-002A
CENTER_NAME    = EARTH
REF_FRAME      = TEME
TIME_SYSTEM    = UTC
MEAN_ELEMENT_THEORY = SGP/SGP4

EPOCH          = 2025-11-29T19:49:09.356736
MEAN_MOTION    = 14.69422870
ECCENTRICITY   = .0000712
INCLINATION    = 98.1074
RA_OF_ASC_NODE = 285.4062
ARG_OF_PERICENTER = 93.4291
MEAN_ANOMALY   = 266.6996

EPHEMERIS_TYPE = 0
CLASSIFICATION_TYPE = U
NORAD_CAT_ID   = 28931
ELEMENT_SET_NO = 999
REV_AT_EPOCH   = 5881
BSTAR          = .27373E-3
MEAN_MOTION_DOT = .1571E-4
MEAN_MOTION_DDOT = 0

CCSDS_OMM_VERS = 2.0
CREATION_DATE  = 
ORIGINATOR     = 

OBJECT_NAME    = H-2A R/B
OBJECT_ID      = 2006-002B
CENTER_NAME    = EARTH
REF_FRAME      = TEME
TIME_SYSTEM    = UTC
MEAN_ELEMENT_THEORY = SGP/SGP4

EPOCH          = 2025-11-29T20:01:41.358144
MEAN_MOTION    = 15.14164695
ECCENTRICITY   = .0054434
INCLINATION    = 98.2308
RA_OF_ASC_NODE = 107.5335
ARG_OF_PERICENTER = 220.2111
MEAN_ANOMALY   = 139.5086

EPHEMERIS_TYPE = 0
CLASSIFICATION_TYPE = U
NORAD_CAT_ID   = 28932
ELEMENT_SET_NO = 999
REV_AT_EPOCH   = 7931
BSTAR          = .54473E-3
MEAN_MOTION_DOT = .10234E-3
MEAN_MOTION_DDOT = 0

CCSDS_OMM_VERS = 2.0
CREATION_DATE  = 
ORIGINATOR     = 

OBJECT_NAME    = RESURS-DK 1
OBJECT_ID      = 2006-021A
CENTER_NAME    = EARTH
REF_FRAME      = TEME
TIME_SYSTEM    = UTC
MEAN_ELEMENT_THEORY = SGP/SGP4

EPOCH          = 2025-11-29T19:09:45.501120
MEAN_MOTION    = 15.12042003
ECCENTRICITY   = .0007711
INCLINATION    = 69.9318
RA_OF_ASC_NODE = 135.2778
ARG_OF_PERICENTER = 267.9237
MEAN_ANOMALY   = 92.1046

EPHEMERIS_TYPE = 0
CLASSIFICATION_TYPE = U
NORAD_CAT_ID   = 29228
ELEMENT_SET_NO = 999
REV_AT_EPOCH   = 7242
BSTAR          = .18692E-3
MEAN_MOTION_DOT = .3116E-4
MEAN_MOTION_DDOT = 0

CCSDS_OMM_VERS = 2.0
CREATION_DATE  = 
ORIGINATOR     = 

OBJECT_NAME    = CZ-4B R/B
OBJECT_ID      = 2006-046C
CENTER_NAME    = EARTH
REF_FRAME      = TEME
TIME_SYSTEM    = UTC
MEAN_ELEMENT_THEORY = SGP/SGP4

EPOCH          = 2025-11-29T15:10:13.351008
MEAN_MOTION    = 15.15667824
ECCENTRICITY   = .0032597
INCLINATION    = 97.5759
RA_OF_ASC_NODE = 13.8065
ARG_OF_PERICENTER = 253.4047
MEAN_ANOMALY   = 106.3604

EPHEMERIS_TYPE = 0
CLASSIFICATION_TYPE = U
NORAD_CAT_ID   = 29507
ELEMENT_SET_NO = 999
REV_AT_EPOCH   = 4488
BSTAR          = .2533E-3
MEAN_MOTION_DOT = .4813E-4
MEAN_MOTION_DDOT = 0

CCSDS_OMM_VERS = 2.0
CREATION_DATE  = 
ORIGINATOR     = 

OBJECT_NAME    = CZ-2C R/B
OBJECT_ID      = 2007-010B
CENTER_NAME    = EARTH
REF_FRAME      = TEME
TIME_SYSTEM    = UTC
MEAN_ELEMENT_THEORY = SGP/SGP4

EPOCH          = 2025-11-29T19:49:12.626112
MEAN_MOTION    = 14.20201033
ECCENTRICITY   = .0058301
INCLINATION    = 98.3970
RA_OF_ASC_NODE = 87.1269
ARG_OF_PERICENTER = 223.7636
MEAN_ANOMALY   = 135.8913

EPHEMERIS_TYPE = 0
CLASSIFICATION_TYPE = U
NORAD_CAT_ID   = 31114
ELEMENT_SET_NO = 999
REV_AT_EPOCH   = 96554
BSTAR          = .91593E-4
MEAN_MOTION_DOT = .158E-5
MEAN_MOTION_DDOT = 0

CCSDS_OMM_VERS = 2.0
CREATION_DATE  = 
ORIGINATOR     = 

OBJECT_NAME    = COSMO-SKYMED 1
OBJECT_ID      = 2007-023A
CENTER_NAME    = EARTH
REF_FRAME      = TEME
TIME_SYSTEM    = UTC
MEAN_ELEMENT_THEORY = SGP/SGP4

EPOCH          = 2025-11-29T19:25:46.856640
MEAN_MOTION    = 14.95617614
ECCENTRICITY   = .0001581
INCLINATION    = 97.8849
RA_OF_ASC_NODE = 159.1249
ARG_OF_PERICENTER = 87.6487
MEAN_ANOMALY   = 272.4914

EPHEMERIS_TYPE = 0
CLASSIFICATION_TYPE = U
NORAD_CAT_ID   = 31598
ELEMENT_SET_NO = 999
REV_AT_EPOCH   = 99996
BSTAR          = .40168E-3
MEAN_MOTION_DOT = .4403E-4
MEAN_MOTION_DDOT = 0

CCSDS_OMM_VERS = 2.0
CREATION_DATE  = 
ORIGINATOR     = 

OBJECT_NAME    = COSMOS 2428
OBJECT_ID      = 2007-029A
CENTER_NAME    = EARTH
REF_FRAME      = TEME
TIME_SYSTEM    = UTC
MEAN_ELEMENT_THEORY = SGP/SGP4

EPOCH          = 2025-11-29T15:22:40.653120
MEAN_MOTION    = 14.12886454
ECCENTRICITY   = .0002944
INCLINATION    = 70.9375
RA_OF_ASC_NODE = 53.3816
ARG_OF_PERICENTER = 44.4094
MEAN_ANOMALY   = 315.7263

EPHEMERIS_TYPE = 0
CLASSIFICATION_TYPE = U
NORAD_CAT_ID   = 31792
ELEMENT_SET_NO = 999
REV_AT_EPOCH   = 94996
BSTAR          = -.16518E-4
MEAN_MOTION_DOT = -.79E-6
MEAN_MOTION_DDOT = 0

CCSDS_OMM_VERS = 2.0
CREATION_DATE  = 
ORIGINATOR     = 

OBJECT_NAME    = SL-16 R/B
OBJECT_ID      = 2007-029B
CENTER_NAME    = EARTH
REF_FRAME      = TEME
TIME_SYSTEM    = UTC
MEAN_ELEMENT_THEORY = SGP/SGP4

EPOCH          = 2025-11-29T14:27:04.800096
MEAN_MOTION    = 14.14816833
ECCENTRICITY   = .0002441
INCLINATION    = 70.9774
RA_OF_ASC_NODE = 22.7743
ARG_OF_PERICENTER = 266.0145
MEAN_ANOMALY   = 205.3753

EPHEMERIS_TYPE = 0
CLASSIFICATION_TYPE = U
NORAD_CAT_ID   = 31793
ELEMENT_SET_NO = 999
REV_AT_EPOCH   = 95121
BSTAR          = -.46832E-4
MEAN_MOTION_DOT = -.138E-5
MEAN_MOTION_DDOT = 0

CCSDS_OMM_VERS = 2.0
CREATION_DATE  = 
ORIGINATOR     = 

OBJECT_NAME    = KORONAS-FOTON
OBJECT_ID      = 2009-003A
CENTER_NAME    = EARTH
REF_FRAME      = TEME
TIME_SYSTEM    = UTC
MEAN_ELEMENT_THEORY = SGP/SGP4

EPOCH          = 2025-11-29T15:17:39.900768
MEAN_MOTION    = 15.40759305
ECCENTRICITY   = .0012378
INCLINATION    = 82.4327
RA_OF_ASC_NODE = 19.6774
ARG_OF_PERICENTER = 151.0027
MEAN_ANOMALY   = 209.1909

EPHEMERIS_TYPE = 0
CLASSIFICATION_TYPE = U
NORAD_CAT_ID   = 33504
ELEMENT_SET_NO = 999
REV_AT_EPOCH   = 93032
BSTAR          = .28105E-3
MEAN_MOTION_DOT = .11564E-3
MEAN_MOTION_DDOT = 0

CCSDS_OMM_VERS = 2.0
CREATION_DATE  = 
ORIGINATOR     = 

OBJECT_NAME    = CZ-2C R/B
OBJECT_ID      = 2011-030B
CENTER_NAME    = EARTH
REF_FRAME      = TEME
TIME_SYSTEM    = UTC
MEAN_ELEMENT_THEORY = SGP/SGP4

EPOCH          = 2025-11-29T19:36:40.589280
MEAN_MOTION    = 14.80829753
ECCENTRICITY   = .0051963
INCLINATION    = 97.8391
RA_OF_ASC_NODE = 288.2120
ARG_OF_PERICENTER = 316.7972
MEAN_ANOMALY   = 72.3448

EPHEMERIS_TYPE = 0
CLASSIFICATION_TYPE = U
NORAD_CAT_ID   = 37731
ELEMENT_SET_NO = 999
REV_AT_EPOCH   = 77531
BSTAR          = .23203E-3
MEAN_MOTION_DOT = .1777E-4
MEAN_MOTION_DDOT = 0

CCSDS_OMM_VERS = 2.0
CREATION_DATE  = 
ORIGINATOR     = 

OBJECT_NAME    = H-2A R/B
OBJECT_ID      = 2012-025E
CENTER_NAME    = EARTH
REF_FRAME      = TEME
TIME_SYSTEM    = UTC
MEAN_ELEMENT_THEORY = SGP/SGP4

EPOCH          = 2025-11-29T20:25:01.638624
MEAN_MOTION    = 14.94312768
ECCENTRICITY   = .0043819
INCLINATION    = 98.4580
RA_OF_ASC_NODE = 288.0902
ARG_OF_PERICENTER = 280.0057
MEAN_ANOMALY   = 79.6218

EPHEMERIS_TYPE = 0
CLASSIFICATION_TYPE = U
NORAD_CAT_ID   = 38341
ELEMENT_SET_NO = 999
REV_AT_EPOCH   = 73330
BSTAR          = .27047E-3
MEAN_MOTION_DOT = .2891E-4
MEAN_MOTION_DDOT = 0

