CZ-2D R/B               
1 28738U 05024B   25333.57484242  .00023957  00000+0  39520-3 0  9998
2 28738  97.3645 340.6867 0007392  46.6348 313.5519 15.52254398124211
ALOS (DAICHI)           
1 28931U 06002A   25333.82580274  .00001571  00000+0  27373-3 0  9991
2 28931  98.1074 285.4062 0000712  93.4291 266.6996 14.69422870 58818
H-2A R/B                
1 28932U 06002B   25333.83450646  .00010234  00000+0  54473-3 0  9999
2 28932  98.2308 107.5335 0054434 220.2111 139.5086 15.14164695 79313
RESURS-DK 1             
1 29228U 06021A   25333.79844330  .00003116  00000+0  18692-3 0  9995
2 29228  69.9318 135.2778 0007711 267.9237  92.1046 15.12042003 72421
CZ-4B R/B               
1 29507U 06046C   25333.63209897  .00004813  00000+0  25330-3 0  9990
2 29507  97.5759  13.8065 0032597 253.4047 106.3604 15.15667824 44880
CZ-2C R/B               
1 31114U 07010B   25333.82584058  .00000158  00000+0  91593-4 0  9998
2 31114  98.3970  87.1269 0058301 223.7636 135.8913 14.20201033965542
COSMO-SKYMED 1          
1 31598U 07023A   25333.80957010  .00004403  00000+0  40168-3 0  9996
2 31598  97.8849 159.1249 0001581  87.6487 272.4914 14.95617614999964
COSMOS 2428             
1 31792U 07029A   25333.64074830 -.00000079  00000+0 -16518-4 0  9990
2 31792  70.9375  53.3816 0002944  44.4094 315.7263 14.12886454949962
SL-16 R/B               
1 31793U 07029B   25333.60213889 -.00000138  00000+0 -46832-4 0  9994
2 31793  70.9774  22.7743 0002441 266.0145 205.3753 14.14816833951211
KORONAS-FOTON           
1 33504U 09003A   25333.63726737  .00011564  00000+0  28105-3 0  9999
2 33504  82.4327  19.6774 0012378 151.0027 209.1909 15.40759305930320
CZ-2C R/B               
1 37731U 11030B   25333.81713645  .00001777  00000+0  23203-3 0  9991
2 37731  97.8391 288.2120 0051963 316.7972  72.3448 14.80829753775310
H-2A R/B                
1 38341U 12025E   25333.85071341  .00002891  00000+0  27047-3 0  9996
2 38341  98.4580 288.0902 0043819 280.0057  79.6218 14.94312768733305
